{"type":"FeatureCollection","features":[{"type":"Feature","id":0,"geometry":{"type":"Point","coordinates":[-92.918158842539441,43.5983252771764]},"properties":{"FID":0,"Id":0}},{"type":"Feature","id":1,"geometry":{"type":"Point","coordinates":[-92.917260527255323,43.5983252771764]},"properties":{"FID":1,"Id":0}},{"type":"Feature","id":2,"geometry":{"type":"Point","coordinates":[-92.916362211971204,43.5983252771764]},"properties":{"FID":2,"Id":0}},{"type":"Feature","id":3,"geometry":{"type":"Point","coordinates":[-92.915463896687086,43.5983252771764]},"properties":{"FID":3,"Id":0}},{"type":"Feature","id":4,"geometry":{"type":"Point","coordinates":[-92.914565581402968,43.5983252771764]},"properties":{"FID":4,"Id":0}},{"type":"Feature","id":5,"geometry":{"type":"Point","coordinates":[-92.91366726611885,43.5983252771764]},"properties":{"FID":5,"Id":0}},{"type":"Feature","id":6,"geometry":{"type":"Point","coordinates":[-92.912768950834717,43.5983252771764]},"properties":{"FID":6,"Id":0}},{"type":"Feature","id":7,"geometry":{"type":"Point","coordinates":[-92.911870635550613,43.5983252771764]},"properties":{"FID":7,"Id":0}},{"type":"Feature","id":8,"geometry":{"type":"Point","coordinates":[-92.910972320266481,43.5983252771764]},"properties":{"FID":8,"Id":0}},{"type":"Feature","id":9,"geometry":{"type":"Point","coordinates":[-92.910074004982377,43.5983252771764]},"properties":{"FID":9,"Id":0}},{"type":"Feature","id":10,"geometry":{"type":"Point","coordinates":[-92.909175689698245,43.5983252771764]},"properties":{"FID":10,"Id":0}},{"type":"Feature","id":11,"geometry":{"type":"Point","coordinates":[-92.918158842539441,43.598975826418233]},"properties":{"FID":11,"Id":0}},{"type":"Feature","id":12,"geometry":{"type":"Point","coordinates":[-92.917260527255323,43.598975826418233]},"properties":{"FID":12,"Id":0}},{"type":"Feature","id":13,"geometry":{"type":"Point","coordinates":[-92.916362211971204,43.598975826418233]},"properties":{"FID":13,"Id":0}},{"type":"Feature","id":14,"geometry":{"type":"Point","coordinates":[-92.915463896687086,43.598975826418233]},"properties":{"FID":14,"Id":0}},{"type":"Feature","id":15,"geometry":{"type":"Point","coordinates":[-92.914565581402968,43.598975826418233]},"properties":{"FID":15,"Id":0}},{"type":"Feature","id":16,"geometry":{"type":"Point","coordinates":[-92.91366726611885,43.598975826418233]},"properties":{"FID":16,"Id":0}},{"type":"Feature","id":17,"geometry":{"type":"Point","coordinates":[-92.912768950834717,43.598975826418233]},"properties":{"FID":17,"Id":0}},{"type":"Feature","id":18,"geometry":{"type":"Point","coordinates":[-92.911870635550613,43.598975826418233]},"properties":{"FID":18,"Id":0}},{"type":"Feature","id":19,"geometry":{"type":"Point","coordinates":[-92.910972320266481,43.598975826418233]},"properties":{"FID":19,"Id":0}},{"type":"Feature","id":20,"geometry":{"type":"Point","coordinates":[-92.910074004982377,43.598975826418233]},"properties":{"FID":20,"Id":0}},{"type":"Feature","id":21,"geometry":{"type":"Point","coordinates":[-92.918158842539441,43.599626368626325]},"properties":{"FID":21,"Id":0}},{"type":"Feature","id":22,"geometry":{"type":"Point","coordinates":[-92.917260527255323,43.599626368626325]},"properties":{"FID":22,"Id":0}},{"type":"Feature","id":23,"geometry":{"type":"Point","coordinates":[-92.916362211971204,43.599626368626325]},"properties":{"FID":23,"Id":0}},{"type":"Feature","id":24,"geometry":{"type":"Point","coordinates":[-92.915463896687086,43.599626368626325]},"properties":{"FID":24,"Id":0}},{"type":"Feature","id":25,"geometry":{"type":"Point","coordinates":[-92.914565581402968,43.599626368626325]},"properties":{"FID":25,"Id":0}},{"type":"Feature","id":26,"geometry":{"type":"Point","coordinates":[-92.91366726611885,43.599626368626325]},"properties":{"FID":26,"Id":0}},{"type":"Feature","id":27,"geometry":{"type":"Point","coordinates":[-92.912768950834717,43.599626368626325]},"properties":{"FID":27,"Id":0}},{"type":"Feature","id":28,"geometry":{"type":"Point","coordinates":[-92.911870635550613,43.599626368626325]},"properties":{"FID":28,"Id":0}},{"type":"Feature","id":29,"geometry":{"type":"Point","coordinates":[-92.910972320266481,43.599626368626325]},"properties":{"FID":29,"Id":0}},{"type":"Feature","id":30,"geometry":{"type":"Point","coordinates":[-92.910074004982377,43.599626368626325]},"properties":{"FID":30,"Id":0}},{"type":"Feature","id":31,"geometry":{"type":"Point","coordinates":[-92.918158842539441,43.600276903800697]},"properties":{"FID":31,"Id":0}},{"type":"Feature","id":32,"geometry":{"type":"Point","coordinates":[-92.917260527255323,43.600276903800697]},"properties":{"FID":32,"Id":0}},{"type":"Feature","id":33,"geometry":{"type":"Point","coordinates":[-92.916362211971204,43.600276903800697]},"properties":{"FID":33,"Id":0}},{"type":"Feature","id":34,"geometry":{"type":"Point","coordinates":[-92.915463896687086,43.600276903800697]},"properties":{"FID":34,"Id":0}},{"type":"Feature","id":35,"geometry":{"type":"Point","coordinates":[-92.914565581402968,43.600276903800697]},"properties":{"FID":35,"Id":0}},{"type":"Feature","id":36,"geometry":{"type":"Point","coordinates":[-92.91366726611885,43.600276903800697]},"properties":{"FID":36,"Id":0}},{"type":"Feature","id":37,"geometry":{"type":"Point","coordinates":[-92.912768950834717,43.600276903800697]},"properties":{"FID":37,"Id":0}},{"type":"Feature","id":38,"geometry":{"type":"Point","coordinates":[-92.911870635550613,43.600276903800697]},"properties":{"FID":38,"Id":0}},{"type":"Feature","id":39,"geometry":{"type":"Point","coordinates":[-92.910972320266481,43.600276903800697]},"properties":{"FID":39,"Id":0}},{"type":"Feature","id":40,"geometry":{"type":"Point","coordinates":[-92.910074004982377,43.600276903800697]},"properties":{"FID":40,"Id":0}},{"type":"Feature","id":41,"geometry":{"type":"Point","coordinates":[-92.918158842539441,43.600927431941329]},"properties":{"FID":41,"Id":0}},{"type":"Feature","id":42,"geometry":{"type":"Point","coordinates":[-92.917260527255323,43.600927431941329]},"properties":{"FID":42,"Id":0}},{"type":"Feature","id":43,"geometry":{"type":"Point","coordinates":[-92.916362211971204,43.600927431941329]},"properties":{"FID":43,"Id":0}},{"type":"Feature","id":44,"geometry":{"type":"Point","coordinates":[-92.915463896687086,43.600927431941329]},"properties":{"FID":44,"Id":0}},{"type":"Feature","id":45,"geometry":{"type":"Point","coordinates":[-92.914565581402968,43.600927431941329]},"properties":{"FID":45,"Id":0}},{"type":"Feature","id":46,"geometry":{"type":"Point","coordinates":[-92.91366726611885,43.600927431941329]},"properties":{"FID":46,"Id":0}},{"type":"Feature","id":47,"geometry":{"type":"Point","coordinates":[-92.912768950834717,43.600927431941329]},"properties":{"FID":47,"Id":0}},{"type":"Feature","id":48,"geometry":{"type":"Point","coordinates":[-92.918158842539441,43.601577953048199]},"properties":{"FID":48,"Id":0}},{"type":"Feature","id":49,"geometry":{"type":"Point","coordinates":[-92.917260527255323,43.601577953048199]},"properties":{"FID":49,"Id":0}},{"type":"Feature","id":50,"geometry":{"type":"Point","coordinates":[-92.916362211971204,43.601577953048199]},"properties":{"FID":50,"Id":0}},{"type":"Feature","id":51,"geometry":{"type":"Point","coordinates":[-92.915463896687086,43.601577953048199]},"properties":{"FID":51,"Id":0}},{"type":"Feature","id":52,"geometry":{"type":"Point","coordinates":[-92.914565581402968,43.601577953048199]},"properties":{"FID":52,"Id":0}},{"type":"Feature","id":53,"geometry":{"type":"Point","coordinates":[-92.91366726611885,43.601577953048199]},"properties":{"FID":53,"Id":0}},{"type":"Feature","id":54,"geometry":{"type":"Point","coordinates":[-92.918158842539441,43.602228467121336]},"properties":{"FID":54,"Id":0}},{"type":"Feature","id":55,"geometry":{"type":"Point","coordinates":[-92.917260527255323,43.602228467121336]},"properties":{"FID":55,"Id":0}},{"type":"Feature","id":56,"geometry":{"type":"Point","coordinates":[-92.916362211971204,43.602228467121336]},"properties":{"FID":56,"Id":0}},{"type":"Feature","id":57,"geometry":{"type":"Point","coordinates":[-92.915463896687086,43.602228467121336]},"properties":{"FID":57,"Id":0}},{"type":"Feature","id":58,"geometry":{"type":"Point","coordinates":[-92.918158842539441,43.602878974160689]},"properties":{"FID":58,"Id":0}},{"type":"Feature","id":59,"geometry":{"type":"Point","coordinates":[-92.917260527255323,43.602878974160689]},"properties":{"FID":59,"Id":0}},{"type":"Feature","id":60,"geometry":{"type":"Point","coordinates":[-92.916362211971204,43.602878974160689]},"properties":{"FID":60,"Id":0}},{"type":"Feature","id":61,"geometry":{"type":"Point","coordinates":[-92.915463896687086,43.602878974160689]},"properties":{"FID":61,"Id":0}}]}