{"type":"FeatureCollection","features":[{"type":"Feature","id":1,"geometry":{"type":"Point","coordinates":[-92.910622211999964,43.60200825700008]},"properties":{"OBJECTID":1}},{"type":"Feature","id":2,"geometry":{"type":"Point","coordinates":[-92.909723895999946,43.60200825700008]},"properties":{"OBJECTID":2}},{"type":"Feature","id":3,"geometry":{"type":"Point","coordinates":[-92.911520526999936,43.602658767000037]},"properties":{"OBJECTID":3}},{"type":"Feature","id":4,"geometry":{"type":"Point","coordinates":[-92.910622211999964,43.602658767000037]},"properties":{"OBJECTID":4}},{"type":"Feature","id":5,"geometry":{"type":"Point","coordinates":[-92.909723895999946,43.602658767000037]},"properties":{"OBJECTID":5}},{"type":"Feature","id":6,"geometry":{"type":"Point","coordinates":[-92.911520526999936,43.603309269000079]},"properties":{"OBJECTID":6}},{"type":"Feature","id":7,"geometry":{"type":"Point","coordinates":[-92.910622211999964,43.603309269000079]},"properties":{"OBJECTID":7}},{"type":"Feature","id":8,"geometry":{"type":"Point","coordinates":[-92.909723895999946,43.603309269000079]},"properties":{"OBJECTID":8}},{"type":"Feature","id":9,"geometry":{"type":"Point","coordinates":[-92.911520526999936,43.603959764000081]},"properties":{"OBJECTID":9}},{"type":"Feature","id":10,"geometry":{"type":"Point","coordinates":[-92.910622211999964,43.603959764000081]},"properties":{"OBJECTID":10}},{"type":"Feature","id":11,"geometry":{"type":"Point","coordinates":[-92.909723895999946,43.603959764000081]},"properties":{"OBJECTID":11}}]}