{"type":"Feature","properties":{"acres":"77.30","name":"barns_field"},"geometry":{"type":"Polygon","coordinates":[[[-92.90921,43.599445],[-92.909274,43.600377],[-92.911334,43.600362],[-92.911699,43.600439],[-92.911935,43.600672],[-92.912257,43.60089],[-92.913029,43.601154],[-92.913566,43.601434],[-92.913737,43.601791],[-92.913909,43.602087],[-92.914467,43.60218],[-92.914939,43.602211],[-92.915111,43.602553],[-92.915132,43.602879],[-92.918608,43.602926],[-92.918608,43.598031],[-92.909145,43.598],[-92.90921,43.599445]]]}}